[{"type":"Feature","id":"18b108da-fb8d-46bf-8366-661bc89be1c6","geometry":{"type":"Polygon","coordinates":[[[72431, 6468],[72431.05, 6469.26],[72431.2, 6470.51],[72431.44, 6471.75],[72431.79, 6472.97],[72432.22, 6474.18],[72432.76, 6475.36],[72433.38, 6476.52],[72434.09, 6477.64],[72434.89, 6478.72],[72435.77, 6479.76],[72436.74, 6480.75],[72437.78, 6481.69],[72438.89, 6482.58],[72440.06, 6483.41],[72441.31, 6484.18],[72442.6, 6484.89],[72443.96, 6485.53],[72445.36, 6486.1],[72446.8, 6486.6],[72448.27, 6487.02],[72449.78, 6487.37],[72451.32, 6487.65],[72452.87, 6487.84],[72454.43, 6487.96],[72456, 6488],[72457.57, 6487.96],[72459.13, 6487.84],[72460.68, 6487.65],[72462.22, 6487.37],[72463.73, 6487.02],[72465.2, 6486.6],[72466.64, 6486.1],[72468.04, 6485.53],[72469.4, 6484.89],[72470.69, 6484.18],[72471.94, 6483.41],[72473.11, 6482.58],[72474.22, 6481.69],[72475.26, 6480.75],[72476.23, 6479.76],[72477.11, 6478.72],[72477.91, 6477.64],[72478.62, 6476.52],[72479.24, 6475.36],[72479.78, 6474.18],[72480.21, 6472.97],[72480.56, 6471.75],[72480.8, 6470.51],[72480.95, 6469.26],[72481, 6468],[72480.95, 6466.74],[72480.8, 6465.49],[72480.56, 6464.25],[72480.21, 6463.03],[72479.78, 6461.82],[72479.24, 6460.64],[72478.62, 6459.48],[72477.91, 6458.36],[72477.11, 6457.28],[72476.23, 6456.24],[72475.26, 6455.25],[72474.22, 6454.31],[72473.11, 6453.42],[72471.94, 6452.59],[72470.69, 6451.82],[72469.4, 6451.11],[72468.04, 6450.47],[72466.64, 6449.9],[72465.2, 6449.4],[72463.73, 6448.98],[72462.22, 6448.63],[72460.68, 6448.35],[72459.13, 6448.16],[72457.57, 6448.04],[72456, 6448],[72454.43, 6448.04],[72452.87, 6448.16],[72451.32, 6448.35],[72449.78, 6448.63],[72448.27, 6448.98],[72446.8, 6449.4],[72445.36, 6449.9],[72443.96, 6450.47],[72442.6, 6451.11],[72441.31, 6451.82],[72440.06, 6452.59],[72438.89, 6453.42],[72437.78, 6454.31],[72436.74, 6455.25],[72435.77, 6456.24],[72434.89, 6457.28],[72434.09, 6458.36],[72433.38, 6459.48],[72432.76, 6460.64],[72432.22, 6461.82],[72431.79, 6463.03],[72431.44, 6464.25],[72431.2, 6465.49],[72431.05, 6466.74],[72431, 6468]]],"isEllipse":true},"properties":{"objectType":"annotation","name":"Reference point 1"}},{"type":"Feature","id":"26af9c30-32f6-468e-8719-e7c4097f5a8f","geometry":{"type":"Polygon","coordinates":[[[78605, 23691.5],[78605.01, 23691.91],[78605.05, 23692.31],[78605.12, 23692.72],[78605.2, 23693.12],[78605.32, 23693.51],[78605.46, 23693.89],[78605.62, 23694.27],[78605.8, 23694.63],[78606.01, 23694.98],[78606.24, 23695.32],[78606.49, 23695.64],[78606.76, 23695.95],[78607.05, 23696.24],[78607.36, 23696.51],[78607.68, 23696.76],[78608.02, 23696.99],[78608.37, 23697.2],[78608.73, 23697.38],[78609.11, 23697.54],[78609.49, 23697.68],[78609.88, 23697.8],[78610.28, 23697.88],[78610.69, 23697.95],[78611.09, 23697.99],[78611.5, 23698],[78611.91, 23697.99],[78612.31, 23697.95],[78612.72, 23697.88],[78613.12, 23697.8],[78613.51, 23697.68],[78613.89, 23697.54],[78614.27, 23697.38],[78614.63, 23697.2],[78614.98, 23696.99],[78615.32, 23696.76],[78615.64, 23696.51],[78615.95, 23696.24],[78616.24, 23695.95],[78616.51, 23695.64],[78616.76, 23695.32],[78616.99, 23694.98],[78617.2, 23694.63],[78617.38, 23694.27],[78617.54, 23693.89],[78617.68, 23693.51],[78617.8, 23693.12],[78617.88, 23692.72],[78617.95, 23692.31],[78617.99, 23691.91],[78618, 23691.5],[78617.99, 23691.09],[78617.95, 23690.69],[78617.88, 23690.28],[78617.8, 23689.88],[78617.68, 23689.49],[78617.54, 23689.11],[78617.38, 23688.73],[78617.2, 23688.37],[78616.99, 23688.02],[78616.76, 23687.68],[78616.51, 23687.36],[78616.24, 23687.05],[78615.95, 23686.76],[78615.64, 23686.49],[78615.32, 23686.24],[78614.98, 23686.01],[78614.63, 23685.8],[78614.27, 23685.62],[78613.89, 23685.46],[78613.51, 23685.32],[78613.12, 23685.2],[78612.72, 23685.12],[78612.31, 23685.05],[78611.91, 23685.01],[78611.5, 23685],[78611.09, 23685.01],[78610.69, 23685.05],[78610.28, 23685.12],[78609.88, 23685.2],[78609.49, 23685.32],[78609.11, 23685.46],[78608.73, 23685.62],[78608.37, 23685.8],[78608.02, 23686.01],[78607.68, 23686.24],[78607.36, 23686.49],[78607.05, 23686.76],[78606.76, 23687.05],[78606.49, 23687.36],[78606.24, 23687.68],[78606.01, 23688.02],[78605.8, 23688.37],[78605.62, 23688.73],[78605.46, 23689.11],[78605.32, 23689.49],[78605.2, 23689.88],[78605.12, 23690.28],[78605.05, 23690.69],[78605.01, 23691.09],[78605, 23691.5]]],"isEllipse":true},"properties":{"objectType":"annotation","name":"Reference point 3"}},{"type":"Feature","id":"eee4969f-330b-442c-aaf5-ebbad78ad601","geometry":{"type":"Polygon","coordinates":[[[22432, 6972],[22432.01, 6972.44],[22432.06, 6972.88],[22432.13, 6973.31],[22432.24, 6973.74],[22432.37, 6974.16],[22432.53, 6974.58],[22432.71, 6974.98],[22432.93, 6975.37],[22433.17, 6975.75],[22433.43, 6976.11],[22433.72, 6976.46],[22434.03, 6976.79],[22434.37, 6977.1],[22434.72, 6977.39],[22435.09, 6977.66],[22435.48, 6977.91],[22435.89, 6978.13],[22436.31, 6978.33],[22436.74, 6978.51],[22437.18, 6978.66],[22437.63, 6978.78],[22438.09, 6978.88],[22438.56, 6978.94],[22439.03, 6978.99],[22439.5, 6979],[22439.97, 6978.99],[22440.44, 6978.94],[22440.91, 6978.88],[22441.37, 6978.78],[22441.82, 6978.66],[22442.26, 6978.51],[22442.69, 6978.33],[22443.11, 6978.13],[22443.52, 6977.91],[22443.91, 6977.66],[22444.28, 6977.39],[22444.63, 6977.1],[22444.97, 6976.79],[22445.28, 6976.46],[22445.57, 6976.11],[22445.83, 6975.75],[22446.07, 6975.37],[22446.29, 6974.98],[22446.47, 6974.58],[22446.63, 6974.16],[22446.76, 6973.74],[22446.87, 6973.31],[22446.94, 6972.88],[22446.99, 6972.44],[22447, 6972],[22446.99, 6971.56],[22446.94, 6971.12],[22446.87, 6970.69],[22446.76, 6970.26],[22446.63, 6969.84],[22446.47, 6969.42],[22446.29, 6969.02],[22446.07, 6968.63],[22445.83, 6968.25],[22445.57, 6967.89],[22445.28, 6967.54],[22444.97, 6967.21],[22444.63, 6966.9],[22444.28, 6966.61],[22443.91, 6966.34],[22443.52, 6966.09],[22443.11, 6965.87],[22442.69, 6965.67],[22442.26, 6965.49],[22441.82, 6965.34],[22441.37, 6965.22],[22440.91, 6965.12],[22440.44, 6965.06],[22439.97, 6965.01],[22439.5, 6965],[22439.03, 6965.01],[22438.56, 6965.06],[22438.09, 6965.12],[22437.63, 6965.22],[22437.18, 6965.34],[22436.74, 6965.49],[22436.31, 6965.67],[22435.89, 6965.87],[22435.48, 6966.09],[22435.09, 6966.34],[22434.72, 6966.61],[22434.37, 6966.9],[22434.03, 6967.21],[22433.72, 6967.54],[22433.43, 6967.89],[22433.17, 6968.25],[22432.93, 6968.63],[22432.71, 6969.02],[22432.53, 6969.42],[22432.37, 6969.84],[22432.24, 6970.26],[22432.13, 6970.69],[22432.06, 6971.12],[22432.01, 6971.56],[22432, 6972]]],"isEllipse":true},"properties":{"objectType":"annotation","name":"Reference point 2"}},{"type":"Feature","id":"b390277f-4d96-418c-b78b-aba183658bed","geometry":{"type":"Polygon","coordinates":[[[66708, 7922],[66714, 8002],[66791, 8218],[66955, 8437],[67123, 8425],[67348, 8355],[67566, 8262],[67719, 8137],[67810, 7939],[67965, 7636],[68017, 7415],[67994, 7281],[68001, 7165],[67978, 7001],[67978, 6999],[67978, 6996],[67911, 6991],[67831, 6834],[67657, 6799],[67468, 6882],[67330, 6985],[67330, 6986],[67328, 6988],[67111, 7186],[66899, 7322],[66898, 7325],[66898, 7328],[66790, 7454],[66790, 7455],[66790, 7457],[66790, 7460],[66790, 7461],[66789, 7463],[66786, 7468],[66786, 7469],[66786, 7471],[66719, 7698],[66708, 7922]]]},"properties":{"objectType":"annotation","name":"1","classification":{"name":"Region*","color":[0, 0, 180]}}},{"type":"Feature","id":"e814cedd-0c22-44c3-a56f-8f887111cf70","geometry":{"type":"Polygon","coordinates":[[[66650, 9916],[66715, 9963],[66717, 9963],[66717, 9965],[66718, 9967],[66720, 9971],[66722, 9972],[66796, 10014],[66796, 10016],[66796, 10017],[66797, 10019],[66797, 10021],[66898, 10143],[66899, 10143],[66886, 10275],[66817, 10506],[66817, 10507],[66816, 10509],[66816, 10510],[66814, 10512],[66814, 10514],[66813, 10514],[66813, 10515],[66813, 10517],[66813, 10518],[66813, 10520],[66813, 10521],[66813, 10523],[66813, 10525],[66813, 10526],[66813, 10528],[66813, 10529],[66803, 10662],[66803, 10666],[66801, 10666],[66801, 10667],[66801, 10670],[66799, 10672],[66799, 10676],[66797, 10683],[66797, 10684],[66796, 10690],[66840, 10834],[66842, 10834],[66843, 10836],[66845, 10838],[66847, 10838],[66849, 10840],[66853, 10840],[66853, 10841],[66854, 10841],[66973, 10794],[67152, 10750],[67154, 10750],[67346, 10640],[67348, 10635],[67348, 10633],[67353, 10633],[67360, 10631],[67360, 10629],[67364, 10629],[67425, 10448],[67427, 10441],[67429, 10437],[67433, 10432],[67435, 10430],[67437, 10430],[67437, 10429],[67439, 10429],[67562, 10316],[67564, 10314],[67566, 10312],[67568, 10311],[67579, 10311],[67581, 10310],[67588, 10310],[67592, 10308],[67594, 10308],[67597, 10307],[67598, 10307],[67621, 10115],[67621, 10097],[67621, 10075],[67621, 10069],[67622, 10063],[67622, 10062],[67624, 10057],[67626, 10055],[67628, 10053],[67630, 10051],[67630, 10048],[67631, 10046],[67633, 10045],[67680, 9917],[67674, 9675],[67679, 9528],[67615, 9260],[67503, 9175],[67503, 9173],[67471, 9037],[67339, 8866],[67182, 8959],[67182, 8961],[67182, 8963],[67181, 8963],[67181, 8964],[67181, 8967],[67179, 8971],[67116, 9034],[67116, 9033],[67112, 9029],[67108, 9022],[67103, 9016],[67097, 9010],[67092, 9006],[66908, 8980],[66757, 9183],[66757, 9185],[66679, 9343],[66679, 9344],[66679, 9346],[66679, 9350],[66679, 9353],[66725, 9471],[66725, 9472],[66725, 9476],[66725, 9483],[66738, 9575],[66738, 9579],[66738, 9582],[66738, 9584],[66714, 9705],[66695, 9816],[66650, 9916]]]},"properties":{"objectType":"annotation","name":"2","classification":{"name":"Region*","color":[0, 0, 180]}}},{"type":"Feature","id":"8f3837a7-2573-4049-8d8b-181df9b6b66d","geometry":{"type":"Polygon","coordinates":[[[63331, 12909],[63420, 12944],[63543, 12954],[63544, 12954],[63548, 12956],[63548, 12957],[63548, 12959],[63546, 12962],[63546, 12966],[63544, 12970],[63543, 12973],[63541, 12975],[63541, 12980],[63540, 12982],[63538, 12985],[63535, 12989],[63533, 12993],[63533, 12996],[63533, 12998],[63584, 13013],[63585, 13011],[63660, 12957],[63682, 13065],[63682, 13136],[63755, 13195],[63765, 13195],[63765, 13193],[63770, 13193],[63770, 13192],[63771, 13192],[63774, 13188],[63779, 13188],[63779, 13187],[63781, 13187],[63783, 13185],[63785, 13181],[63790, 13176],[63797, 13170],[63799, 13168],[63801, 13165],[63802, 13165],[63804, 13163],[63808, 13162],[63809, 13160],[63810, 13157],[63812, 13155],[63814, 13154],[63818, 13152],[63818, 13150],[63819, 13150],[63820, 13148],[63822, 13147],[63823, 13145],[63823, 13144],[63825, 13143],[63827, 13141],[63827, 13139],[63827, 13137],[63829, 13136],[63830, 13134],[63830, 13133],[63834, 13133],[63851, 13137],[63854, 13139],[63857, 13141],[63859, 13141],[63861, 13143],[63863, 13143],[63863, 13145],[63872, 13145],[63876, 13146],[63881, 13147],[63911, 13147],[63969, 13116],[64010, 13027],[64044, 12968],[64094, 12964],[64096, 12966],[64103, 12970],[64112, 12976],[64249, 12938],[64257, 12938],[64258, 12937],[64264, 12937],[64425, 12825],[64426, 12825],[64538, 12776],[64613, 12740],[64614, 12739],[64615, 12735],[64706, 12623],[64770, 12466],[64770, 12463],[64770, 12461],[64874, 12304],[64874, 12303],[64876, 12301],[64878, 12301],[64879, 12299],[64880, 12299],[64890, 12121],[64708, 11937],[64532, 11920],[64529, 11920],[64343, 11926],[64341, 11926],[64175, 11972],[64173, 11972],[64112, 11971],[64107, 12079],[64087, 12128],[63994, 12059],[63879, 12001],[63878, 12001],[63877, 11999],[63781, 11962],[63779, 11962],[63779, 11964],[63777, 11964],[63665, 12035],[63663, 12035],[63663, 12037],[63661, 12038],[63620, 12167],[63610, 12296],[63560, 12386],[63561, 12386],[63561, 12388],[63466, 12514],[63466, 12515],[63467, 12515],[63470, 12629],[63470, 12631],[63470, 12633],[63383, 12644],[63383, 12646],[63336, 12745],[63332, 12877],[63331, 12909]]]},"properties":{"objectType":"annotation","name":"3","classification":{"name":"Region*","color":[0, 0, 180]}}},{"type":"Feature","id":"4b8568bd-435f-4519-9a27-e7564d773883","geometry":{"type":"Polygon","coordinates":[[[66776, 18676],[66776, 18680],[66776, 18681],[66786, 18744],[66786, 18745],[66786, 18746],[66786, 18747],[66813, 18805],[66814, 18805],[66814, 18806],[66816, 18806],[66816, 18808],[66816, 18809],[66819, 18812],[66821, 18820],[66847, 18944],[66847, 18945],[66847, 18946],[66847, 18947],[66847, 18948],[66845, 18949],[66845, 18950],[66845, 18951],[66845, 18952],[66845, 18953],[66890, 19086],[66930, 19254],[66940, 19274],[66940, 19275],[66940, 19277],[66940, 19280],[66942, 19282],[66942, 19285],[66942, 19290],[67007, 19391],[67007, 19393],[67009, 19393],[67010, 19394],[67010, 19395],[67010, 19396],[67012, 19396],[67012, 19397],[67013, 19399],[67013, 19402],[67091, 19492],[67092, 19493],[67093, 19493],[67094, 19494],[67096, 19494],[67096, 19496],[67098, 19497],[67100, 19498],[67101, 19500],[67102, 19501],[67103, 19501],[67104, 19502],[67151, 19486],[67256, 19553],[67282, 19420],[67355, 19439],[67480, 19336],[67483, 19330],[67484, 19328],[67484, 19327],[67487, 19327],[67547, 19265],[67645, 19216],[67669, 19108],[67719, 18990],[67723, 18981],[67727, 18974],[67728, 18969],[67728, 18967],[67728, 18966],[67678, 18914],[67677, 18916],[67675, 18917],[67673, 18919],[67672, 18920],[67669, 18920],[67637, 18838],[67638, 18838],[67638, 18837],[67639, 18837],[67622, 18731],[67531, 18623],[67526, 18617],[67525, 18614],[67525, 18613],[67525, 18612],[67523, 18612],[67523, 18611],[67489, 18454],[67489, 18453],[67356, 18393],[67355, 18394],[67353, 18397],[67353, 18398],[67256, 18458],[67255, 18458],[67255, 18459],[67104, 18526],[67104, 18528],[67103, 18528],[67103, 18529],[67102, 18532],[67101, 18533],[67100, 18534],[67099, 18535],[66905, 18600],[66903, 18600],[66902, 18601],[66793, 18662],[66790, 18663],[66788, 18664],[66787, 18665],[66784, 18667],[66782, 18668],[66781, 18670],[66778, 18672],[66777, 18674],[66776, 18676]]]},"properties":{"objectType":"annotation","name":"4","classification":{"name":"Region*","color":[0, 0, 180]}}},{"type":"Feature","id":"50087970-26a4-4527-97f1-e304cbb75212","geometry":{"type":"Polygon","coordinates":[[[74943, 23431],[74991, 23497],[75059, 23495],[75064, 23495],[75066, 23496],[75087, 23437],[75155, 23426],[75158, 23426],[75159, 23427],[75123, 23504],[75092, 23590],[75080, 23665],[75059, 23779],[75059, 23780],[75033, 23806],[75031, 23806],[75030, 23807],[75008, 23882],[75008, 23885],[75009, 23888],[75012, 23895],[75012, 23900],[75013, 23906],[75015, 23915],[75016, 23923],[75017, 23927],[75018, 23932],[75048, 23973],[75049, 23977],[75050, 23981],[75053, 23986],[75064, 24001],[75110, 24057],[75111, 24057],[75112, 24058],[75113, 24058],[75114, 24059],[75116, 24060],[75118, 24061],[75118, 24062],[75122, 24063],[75126, 24067],[75195, 24117],[75196, 24117],[75197, 24118],[75199, 24118],[75200, 24119],[75268, 24187],[75269, 24187],[75269, 24188],[75271, 24188],[75274, 24189],[75289, 24189],[75289, 24188],[75297, 24188],[75315, 24076],[75410, 24068],[75416, 24068],[75417, 24069],[75457, 24097],[75458, 24097],[75458, 24098],[75460, 24098],[75462, 24099],[75465, 24100],[75468, 24102],[75471, 24103],[75473, 24104],[75477, 24105],[75480, 24106],[75488, 24106],[75489, 24107],[75491, 24108],[75496, 24110],[75498, 24111],[75501, 24112],[75507, 24115],[75512, 24117],[75515, 24119],[75520, 24122],[75523, 24125],[75526, 24126],[75528, 24128],[75533, 24130],[75535, 24130],[75537, 24131],[75539, 24132],[75541, 24132],[75542, 24131],[75548, 24050],[75549, 24042],[75550, 24033],[75550, 24031],[75551, 24029],[75552, 24027],[75553, 24027],[75555, 24026],[75558, 24023],[75560, 24021],[75563, 24019],[75564, 24019],[75566, 24018],[75566, 24017],[75568, 24017],[75584, 23975],[75521, 23920],[75531, 23920],[75591, 23895],[75592, 23894],[75593, 23894],[75593, 23893],[75571, 23838],[75580, 23719],[75586, 23719],[75586, 23718],[75586, 23694],[75556, 23642],[75558, 23583],[75559, 23583],[75560, 23582],[75562, 23580],[75563, 23578],[75567, 23576],[75570, 23574],[75572, 23571],[75575, 23570],[75577, 23569],[75580, 23566],[75586, 23563],[75588, 23562],[75589, 23561],[75590, 23560],[75591, 23559],[75595, 23555],[75596, 23553],[75598, 23551],[75599, 23549],[75600, 23548],[75601, 23547],[75601, 23546],[75571, 23485],[75566, 23485],[75565, 23484],[75569, 23379],[75569, 23378],[75569, 23377],[75602, 23306],[75604, 23294],[75604, 23293],[75605, 23293],[75605, 23292],[75606, 23291],[75606, 23290],[75621, 23238],[75621, 23236],[75619, 23234],[75617, 23230],[75617, 23227],[75546, 23215],[75546, 23214],[75544, 23214],[75543, 23213],[75493, 23159],[75491, 23155],[75489, 23151],[75489, 23149],[75488, 23147],[75432, 23121],[75395, 23121],[75394, 23122],[75304, 23185],[75302, 23186],[75300, 23187],[75298, 23188],[75296, 23188],[75295, 23189],[75294, 23190],[75293, 23190],[75292, 23191],[75290, 23192],[75290, 23194],[75288, 23195],[75287, 23195],[75237, 23210],[75236, 23210],[75236, 23211],[75235, 23212],[75234, 23213],[75231, 23215],[75149, 23250],[75148, 23250],[75147, 23251],[75145, 23252],[75143, 23253],[75142, 23255],[75141, 23256],[75042, 23312],[75040, 23312],[75037, 23314],[75036, 23314],[75036, 23315],[75034, 23315],[75032, 23316],[75029, 23322],[75027, 23324],[75026, 23324],[74943, 23431]]]},"properties":{"objectType":"annotation","name":"5","classification":{"name":"Region*","color":[0, 0, 180]}}},{"type":"Feature","id":"50cc73ad-0cf1-4966-afa8-e91d3ea99a47","geometry":{"type":"Polygon","coordinates":[[[72206, 10115],[72206, 10116],[72206, 10117],[72206, 10118],[72238, 10201],[72239, 10201],[72304, 10212],[72307, 10212],[72308, 10211],[72311, 10211],[72314, 10210],[72331, 10210],[72348, 10208],[72350, 10208],[72353, 10209],[72355, 10212],[72479, 10179],[72540, 10295],[72541, 10296],[72610, 10343],[72612, 10344],[72616, 10345],[72618, 10345],[72624, 10346],[72626, 10346],[72627, 10347],[72633, 10347],[72686, 10316],[72687, 10316],[72807, 10304],[72885, 10450],[72894, 10548],[72902, 10548],[73028, 10500],[73030, 10497],[73058, 10414],[73059, 10413],[73059, 10412],[73059, 10411],[73059, 10409],[73156, 10402],[73159, 10401],[73162, 10400],[73168, 10400],[73195, 10283],[73168, 10188],[73135, 10099],[73044, 9942],[73039, 9934],[73036, 9931],[73035, 9928],[73034, 9927],[72986, 9790],[72985, 9787],[72984, 9787],[72956, 9656],[72956, 9654],[72954, 9644],[72954, 9640],[72954, 9637],[72953, 9633],[72953, 9630],[72953, 9629],[72863, 9565],[72854, 9401],[72852, 9396],[72851, 9394],[72850, 9390],[72848, 9387],[72847, 9386],[72846, 9383],[72845, 9383],[72725, 9403],[72724, 9403],[72724, 9404],[72660, 9457],[72659, 9460],[72659, 9461],[72659, 9465],[72659, 9467],[72658, 9473],[72658, 9474],[72658, 9475],[72658, 9476],[72657, 9477],[72611, 9567],[72611, 9568],[72611, 9571],[72611, 9573],[72611, 9574],[72611, 9575],[72611, 9577],[72523, 9659],[72523, 9660],[72511, 9745],[72511, 9747],[72511, 9748],[72442, 9854],[72405, 9980],[72405, 9984],[72404, 9986],[72404, 9988],[72404, 9990],[72402, 9993],[72402, 9994],[72369, 10044],[72368, 10045],[72366, 10045],[72365, 10046],[72364, 10046],[72362, 10047],[72361, 10048],[72360, 10048],[72359, 10050],[72357, 10050],[72268, 10072],[72206, 10115]]]},"properties":{"objectType":"annotation","name":"6","classification":{"name":"Region*","color":[0, 0, 180]}}}]